{
  "type": "FeatureCollection",
  "features": [
    {
      "type": "Feature",
      "properties": {
        "norad_id": 35026,
        "name": "COSMOS 2251 DEB",
        "group": "cosmos-2251-debris",
        "lat": 20.387377470294595,
        "lon": -62.59903029660544,
        "alt_km": 658.1093433258775,
        "timestamp": "2025-12-27T07:26:25.616406+00:00",
        "meta_object_name": "COSMOS 2251 DEB",
        "meta_object_id": "1993-036AGP",
        "meta_epoch": "2025-12-25T02:35:01.847328",
        "meta_mean_motion": 14.53631376,
        "meta_eccentricity": 0.00826322,
        "meta_inclination": 74.0477,
        "meta_ra_of_asc_node": 295.4544,
        "meta_arg_of_pericenter": 45.4243,
        "meta_mean_anomaly": 335.8431,
        "meta_ephemeris_type": 0,
        "meta_classification_type": "U",
        "meta_norad_cat_id": 35026,
        "meta_element_set_no": 999,
        "meta_rev_at_epoch": 88323,
        "meta_bstar": 8.4826771e-05,
        "meta_mean_motion_dot": 3.41e-06,
        "meta_mean_motion_ddot": 0,
        "tle_line1": "1 35026U 93036AGP 25359.10766027  .00000341  00000+0  84827-4 0  9990",
        "tle_line2": "2 35026  74.0477 295.4544 0082632  45.4243 335.8431 14.53631376883233"
      },
      "geometry": {
        "type": "Point",
        "coordinates": [
          -62.59903029660544,
          20.387377470294595
        ]
      }
    },
    {
      "type": "Feature",
      "properties": {
        "norad_id": 35028,
        "name": "COSMOS 2251 DEB",
        "group": "cosmos-2251-debris",
        "lat": -66.24692498697135,
        "lon": -157.23898848325055,
        "alt_km": 705.828949751055,
        "timestamp": "2025-12-27T07:26:25.616416+00:00",
        "meta_object_name": "COSMOS 2251 DEB",
        "meta_object_id": "1993-036AGR",
        "meta_epoch": "2025-12-26T09:14:11.078016",
        "meta_mean_motion": 14.56582839,
        "meta_eccentricity": 0.008309,
        "meta_inclination": 74.0377,
        "meta_ra_of_asc_node": 245.0874,
        "meta_arg_of_pericenter": 15.167,
        "meta_mean_anomaly": 104.3209,
        "meta_ephemeris_type": 0,
        "meta_classification_type": "U",
        "meta_norad_cat_id": 35028,
        "meta_element_set_no": 999,
        "meta_rev_at_epoch": 88484,
        "meta_bstar": 9.0149e-05,
        "meta_mean_motion_dot": 3.89e-06,
        "meta_mean_motion_ddot": 0,
        "tle_line1": "1 35028U 93036AGR 25360.38485044  .00000389  00000+0  90149-4 0  9997",
        "tle_line2": "2 35028  74.0377 245.0874 0083090  15.1670 104.3209 14.56582839884840"
      },
      "geometry": {
        "type": "Point",
        "coordinates": [
          -157.23898848325055,
          -66.24692498697135
        ]
      }
    },
    {
      "type": "Feature",
      "properties": {
        "norad_id": 35031,
        "name": "COSMOS 2251 DEB",
        "group": "cosmos-2251-debris",
        "lat": -35.99541062314569,
        "lon": -139.58020874170796,
        "alt_km": 756.1869865598865,
        "timestamp": "2025-12-27T07:26:25.616426+00:00",
        "meta_object_name": "COSMOS 2251 DEB",
        "meta_object_id": "1993-036AGU",
        "meta_epoch": "2025-12-26T08:14:40.104672",
        "meta_mean_motion": 14.38307542,
        "meta_eccentricity": 0.0019397,
        "meta_inclination": 74.0373,
        "meta_ra_of_asc_node": 234.2004,
        "meta_arg_of_pericenter": 325.2705,
        "meta_mean_anomaly": 34.7182,
        "meta_ephemeris_type": 0,
        "meta_classification_type": "U",
        "meta_norad_cat_id": 35031,
        "meta_element_set_no": 999,
        "meta_rev_at_epoch": 65479,
        "meta_bstar": 0.0001513,
        "meta_mean_motion_dot": 4.35e-06,
        "meta_mean_motion_ddot": 0,
        "tle_line1": "1 35031U 93036AGU 25360.34351973  .00000435  00000+0  15130-3 0  9998",
        "tle_line2": "2 35031  74.0373 234.2004 0019397 325.2705  34.7182 14.38307542654799"
      },
      "geometry": {
        "type": "Point",
        "coordinates": [
          -139.58020874170796,
          -35.99541062314569
        ]
      }
    },
    {
      "type": "Feature",
      "properties": {
        "norad_id": 35032,
        "name": "COSMOS 2251 DEB",
        "group": "cosmos-2251-debris",
        "lat": -1.3594881725026438,
        "lon": 159.60588634306032,
        "alt_km": 652.3747717745191,
        "timestamp": "2025-12-27T07:26:25.616437+00:00",
        "meta_object_name": "COSMOS 2251 DEB",
        "meta_object_id": "1993-036AGV",
        "meta_epoch": "2025-12-26T22:31:31.727424",
        "meta_mean_motion": 14.58831972,
        "meta_eccentricity": 0.00673714,
        "meta_inclination": 73.8522,
        "meta_ra_of_asc_node": 339.9271,
        "meta_arg_of_pericenter": 188.6213,
        "meta_mean_anomaly": 202.7364,
        "meta_ephemeris_type": 0,
        "meta_classification_type": "U",
        "meta_norad_cat_id": 35032,
        "meta_element_set_no": 999,
        "meta_rev_at_epoch": 87881,
        "meta_bstar": 0.00091766171,
        "meta_mean_motion_dot": 4.401e-05,
        "meta_mean_motion_ddot": 0,
        "tle_line1": "1 35032U 93036AGV 25360.93856166  .00004401  00000+0  91766-3 0  9994",
        "tle_line2": "2 35032  73.8522 339.9271 0067371 188.6213 202.7364 14.58831972878813"
      },
      "geometry": {
        "type": "Point",
        "coordinates": [
          159.60588634306032,
          -1.3594881725026438
        ]
      }
    },
    {
      "type": "Feature",
      "properties": {
        "norad_id": 35033,
        "name": "COSMOS 2251 DEB",
        "group": "cosmos-2251-debris",
        "lat": 24.13415443642258,
        "lon": -38.210795960634805,
        "alt_km": 723.0459763138006,
        "timestamp": "2025-12-27T07:26:25.616447+00:00",
        "meta_object_name": "COSMOS 2251 DEB",
        "meta_object_id": "1993-036AGW",
        "meta_epoch": "2025-12-19T05:07:27.625152",
        "meta_mean_motion": 14.50959586,
        "meta_eccentricity": 0.001448,
        "meta_inclination": 74.0251,
        "meta_ra_of_asc_node": 164.3945,
        "meta_arg_of_pericenter": 270.8601,
        "meta_mean_anomaly": 89.0901,
        "meta_ephemeris_type": 0,
        "meta_classification_type": "U",
        "meta_norad_cat_id": 35033,
        "meta_element_set_no": 999,
        "meta_rev_at_epoch": 66021,
        "meta_bstar": 0.00048139,
        "meta_mean_motion_dot": 1.877e-05,
        "meta_mean_motion_ddot": 0,
        "tle_line1": "1 35033U 93036AGW 25353.21351418  .00001877  00000+0  48139-3 0  9998",
        "tle_line2": "2 35033  74.0251 164.3945 0014480 270.8601  89.0901 14.50959586660212"
      },
      "geometry": {
        "type": "Point",
        "coordinates": [
          -38.210795960634805,
          24.13415443642258
        ]
      }
    },
    {
      "type": "Feature",
      "properties": {
        "norad_id": 35038,
        "name": "COSMOS 2251 DEB",
        "group": "cosmos-2251-debris",
        "lat": -27.986102880378198,
        "lon": -154.87231245039575,
        "alt_km": 881.8678419062971,
        "timestamp": "2025-12-27T07:26:25.616457+00:00",
        "meta_object_name": "COSMOS 2251 DEB",
        "meta_object_id": "1993-036AHB",
        "meta_epoch": "2025-12-16T02:43:57.942048",
        "meta_mean_motion": 14.25166694,
        "meta_eccentricity": 0.01140711,
        "meta_inclination": 74.1077,
        "meta_ra_of_asc_node": 36.5236,
        "meta_arg_of_pericenter": 19.3791,
        "meta_mean_anomaly": 9.3469,
        "meta_ephemeris_type": 0,
        "meta_classification_type": "U",
        "meta_norad_cat_id": 35038,
        "meta_element_set_no": 999,
        "meta_rev_at_epoch": 85617,
        "meta_bstar": 0.00096319549,
        "meta_mean_motion_dot": 2.397e-05,
        "meta_mean_motion_ddot": 0,
        "tle_line1": "1 35038U 93036AHB 25350.11386507  .00002397  00000+0  96320-3 0  9999",
        "tle_line2": "2 35038  74.1077  36.5236 0114071  19.3791   9.3469 14.25166694856178"
      },
      "geometry": {
        "type": "Point",
        "coordinates": [
          -154.87231245039575,
          -27.986102880378198
        ]
      }
    },
    {
      "type": "Feature",
      "properties": {
        "norad_id": 35043,
        "name": "COSMOS 2251 DEB",
        "group": "cosmos-2251-debris",
        "lat": -72.07672967894082,
        "lon": -100.28908271454074,
        "alt_km": 591.1933757244033,
        "timestamp": "2025-12-27T07:26:25.616467+00:00",
        "meta_object_name": "COSMOS 2251 DEB",
        "meta_object_id": "1993-036AHG",
        "meta_epoch": "2025-12-26T18:53:03.575616",
        "meta_mean_motion": 14.77645294,
        "meta_eccentricity": 0.00948894,
        "meta_inclination": 73.9519,
        "meta_ra_of_asc_node": 17.8748,
        "meta_arg_of_pericenter": 224.707,
        "meta_mean_anomaly": 134.6429,
        "meta_ephemeris_type": 0,
        "meta_classification_type": "U",
        "meta_norad_cat_id": 35043,
        "meta_element_set_no": 999,
        "meta_rev_at_epoch": 67626,
        "meta_bstar": 0.0032488799,
        "meta_mean_motion_dot": 0.00025114,
        "meta_mean_motion_ddot": 0,
        "tle_line1": "1 35043U 93036AHG 25360.78684694  .00025114  00000+0  32489-2 0  9994",
        "tle_line2": "2 35043  73.9519  17.8748 0094889 224.7070 134.6429 14.77645294676261"
      },
      "geometry": {
        "type": "Point",
        "coordinates": [
          -100.28908271454074,
          -72.07672967894082
        ]
      }
    }
  ]
}